ONEWEB-0336             
1 49202U 21083S   26042.26092059 -.00000086  00000+0 -27029-3 0  9996
2 49202  87.9029 345.2656 0002233  74.2128 285.9247 13.13471772214380
ONEWEB-0337             
1 49203U 21083T   26042.27094097  .00000186  00000+0  47431-3 0  9990
2 49203  87.9022 345.2740 0002038  82.2662 277.8699 13.13470469214386
ONEWEB-0338             
1 49204U 21083U   26041.67920931  .00000009  00000+0 -89595-5 0  9993
2 49204  87.9208 299.7107 0001320  86.3080 273.8204 13.20772806220119
ONEWEB-0339             
1 49205U 21083V   26042.27955318  .00000335  00000+0  88143-3 0  9995
2 49205  87.9038 345.2572 0001654  89.3199 270.8120 13.13471080214364
ONEWEB-0340             
1 49206U 21083W   26041.42036899  .00000045  00000+0  81441-4 0  9999
2 49206  87.9229   0.6177 0001919  81.0382 279.0967 13.18684897213262
ONEWEB-0341             
1 49207U 21083X   26041.42697766  .00000045  00000+0  80298-4 0  9995
2 49207  87.9226   0.6271 0002296  91.0090 269.1305 13.18688139213282
ONEWEB-0342             
1 49208U 21083Y   26042.14004269  .00000095  00000+0  20058-3 0  9998
2 49208  87.9218 299.5943 0001542  84.0516 276.0793 13.20769791220145
ONEWEB-0343             
1 49209U 21083Z   26041.89047277 -.00000006  00000+0 -48028-4 0  9998
2 49209  87.9231   0.5282 0002028 101.1194 259.0166 13.18683937213398
ONEWEB-0344             
1 49210U 21083AA  26042.27445969  .00000256  00000+0  66647-3 0  9994
2 49210  87.9026 345.2845 0002150  87.1743 272.9632 13.13472407214368
ONEWEB-0345             
1 49211U 21083AB  26042.26600125  .00000083  00000+0  19117-3 0  9999
2 49211  87.9031 345.2517 0002126  86.2204 273.9168 13.13470448214375
ONEWEB-0346             
1 49212U 21083AC  26041.81130618 -.00000006  00000+0 -46777-4 0  9995
2 49212  87.9215   0.5555 0002352  65.5778 294.5599 13.18686209213320
ONEWEB-0348             
1 49213U 21083AD  26042.13057377  .00000135  00000+0  30055-3 0  9994
2 49213  87.9214 299.5996 0002199  74.8526 285.2850 13.20773010220170
ONEWEB-0350             
1 49214U 21083AE  26042.27529387  .00000343  00000+0  90354-3 0  9994
2 49214  87.9033 345.2490 0002122  84.3454 275.7917 13.13473889214400
ONEWEB-0351             
1 49215U 21083AF  26041.66959650  .00000039  00000+0  64898-4 0  9994
2 49215  87.9212 299.6895 0001427 110.3771 249.7516 13.20772819220079
ONEWEB-0352             
1 49216U 21083AG  26042.25584304 -.00000195  00000+0 -56800-3 0  9999
2 49216  87.9027 345.2705 0001640  90.7999 269.3318 13.13470842214492
ONEWEB-0354             
1 49217U 21083AH  26042.14951295  .00000078  00000+0  15893-3 0  9990
2 49217  87.9210 299.5935 0001937  79.0674 281.0677 13.20769653220172
ONEWEB-0355             
1 49218U 21083AJ  26042.28476057  .00000446  00000+0  11873-2 0  9996
2 49218  87.9019 345.2770 0001880  88.4669 271.6676 13.13472161214377
