[{"OBJECT_NAME":"ONEWEB-0336","OBJECT_ID":"2021-083S","EPOCH":"2026-02-11T06:15:43.538976","MEAN_MOTION":13.13471772,"ECCENTRICITY":0.00022337,"INCLINATION":87.9029,"RA_OF_ASC_NODE":345.2656,"ARG_OF_PERICENTER":74.2128,"MEAN_ANOMALY":285.9247,"EPHEMERIS_TYPE":0,"CLASSIFICATION_TYPE":"U","NORAD_CAT_ID":49202,"ELEMENT_SET_NO":999,"REV_AT_EPOCH":21438,"BSTAR":-0.00027028807,"MEAN_MOTION_DOT":-8.6e-7,"MEAN_MOTION_DDOT":0},{"OBJECT_NAME":"ONEWEB-0337","OBJECT_ID":"2021-083T","EPOCH":"2026-02-11T06:30:09.299808","MEAN_MOTION":13.13470469,"ECCENTRICITY":0.0002038,"INCLINATION":87.9022,"RA_OF_ASC_NODE":345.274,"ARG_OF_PERICENTER":82.2662,"MEAN_ANOMALY":277.8699,"EPHEMERIS_TYPE":0,"CLASSIFICATION_TYPE":"U","NORAD_CAT_ID":49203,"ELEMENT_SET_NO":999,"REV_AT_EPOCH":21438,"BSTAR":0.0004743055,"MEAN_MOTION_DOT":1.86e-6,"MEAN_MOTION_DDOT":0},{"OBJECT_NAME":"ONEWEB-0338","OBJECT_ID":"2021-083U","EPOCH":"2026-02-10T16:18:03.684384","MEAN_MOTION":13.20772806,"ECCENTRICITY":0.00013204,"INCLINATION":87.9208,"RA_OF_ASC_NODE":299.7107,"ARG_OF_PERICENTER":86.308,"MEAN_ANOMALY":273.8204,"EPHEMERIS_TYPE":0,"CLASSIFICATION_TYPE":"U","NORAD_CAT_ID":49204,"ELEMENT_SET_NO":999,"REV_AT_EPOCH":22011,"BSTAR":-8.959483e-6,"MEAN_MOTION_DOT":9.0e-8,"MEAN_MOTION_DDOT":0},{"OBJECT_NAME":"ONEWEB-0339","OBJECT_ID":"2021-083V","EPOCH":"2026-02-11T06:42:33.394752","MEAN_MOTION":13.1347108,"ECCENTRICITY":0.00016541,"INCLINATION":87.9038,"RA_OF_ASC_NODE":345.2572,"ARG_OF_PERICENTER":89.3199,"MEAN_ANOMALY":270.812,"EPHEMERIS_TYPE":0,"CLASSIFICATION_TYPE":"U","NORAD_CAT_ID":49205,"ELEMENT_SET_NO":999,"REV_AT_EPOCH":21436,"BSTAR":0.00088142928,"MEAN_MOTION_DOT":3.35e-6,"MEAN_MOTION_DDOT":0},{"OBJECT_NAME":"ONEWEB-0340","OBJECT_ID":"2021-083W","EPOCH":"2026-02-10T10:05:19.880736","MEAN_MOTION":13.18684897,"ECCENTRICITY":0.00019199,"INCLINATION":87.9229,"RA_OF_ASC_NODE":0.6177,"ARG_OF_PERICENTER":81.0382,"MEAN_ANOMALY":279.0967,"EPHEMERIS_TYPE":0,"CLASSIFICATION_TYPE":"U","NORAD_CAT_ID":49206,"ELEMENT_SET_NO":999,"REV_AT_EPOCH":21326,"BSTAR":8.1440503e-5,"MEAN_MOTION_DOT":4.5e-7,"MEAN_MOTION_DDOT":0},{"OBJECT_NAME":"ONEWEB-0341","OBJECT_ID":"2021-083X","EPOCH":"2026-02-10T10:14:50.869824","MEAN_MOTION":13.18688139,"ECCENTRICITY":0.00022967,"INCLINATION":87.9226,"RA_OF_ASC_NODE":0.6271,"ARG_OF_PERICENTER":91.009,"MEAN_ANOMALY":269.1305,"EPHEMERIS_TYPE":0,"CLASSIFICATION_TYPE":"U","NORAD_CAT_ID":49207,"ELEMENT_SET_NO":999,"REV_AT_EPOCH":21328,"BSTAR":8.0298413e-5,"MEAN_MOTION_DOT":4.5e-7,"MEAN_MOTION_DDOT":0},{"OBJECT_NAME":"ONEWEB-0342","OBJECT_ID":"2021-083Y","EPOCH":"2026-02-11T03:21:39.688416","MEAN_MOTION":13.20769791,"ECCENTRICITY":0.00015425,"INCLINATION":87.9218,"RA_OF_ASC_NODE":299.5943,"ARG_OF_PERICENTER":84.0516,"MEAN_ANOMALY":276.0793,"EPHEMERIS_TYPE":0,"CLASSIFICATION_TYPE":"U","NORAD_CAT_ID":49208,"ELEMENT_SET_NO":999,"REV_AT_EPOCH":22014,"BSTAR":0.00020058477,"MEAN_MOTION_DOT":9.5e-7,"MEAN_MOTION_DDOT":0},{"OBJECT_NAME":"ONEWEB-0343","OBJECT_ID":"2021-083Z","EPOCH":"2026-02-10T21:22:16.847328","MEAN_MOTION":13.18683937,"ECCENTRICITY":0.00020285,"INCLINATION":87.9231,"RA_OF_ASC_NODE":0.5282,"ARG_OF_PERICENTER":101.1194,"MEAN_ANOMALY":259.0166,"EPHEMERIS_TYPE":0,"CLASSIFICATION_TYPE":"U","NORAD_CAT_ID":49209,"ELEMENT_SET_NO":999,"REV_AT_EPOCH":21339,"BSTAR":-4.80283e-5,"MEAN_MOTION_DOT":-6.0e-8,"MEAN_MOTION_DDOT":0},{"OBJECT_NAME":"ONEWEB-0344","OBJECT_ID":"2021-083AA","EPOCH":"2026-02-11T06:35:13.317216","MEAN_MOTION":13.13472407,"ECCENTRICITY":0.00021509,"INCLINATION":87.9026,"RA_OF_ASC_NODE":345.2845,"ARG_OF_PERICENTER":87.1743,"MEAN_ANOMALY":272.9632,"EPHEMERIS_TYPE":0,"CLASSIFICATION_TYPE":"U","NORAD_CAT_ID":49210,"ELEMENT_SET_NO":999,"REV_AT_EPOCH":21436,"BSTAR":0.00066646826,"MEAN_MOTION_DOT":2.56e-6,"MEAN_MOTION_DDOT":0},{"OBJECT_NAME":"ONEWEB-0345","OBJECT_ID":"2021-083AB","EPOCH":"2026-02-11T06:23:02.508000","MEAN_MOTION":13.13470448,"ECCENTRICITY":0.00021267,"INCLINATION":87.9031,"RA_OF_ASC_NODE":345.2517,"ARG_OF_PERICENTER":86.2204,"MEAN_ANOMALY":273.9168,"EPHEMERIS_TYPE":0,"CLASSIFICATION_TYPE":"U","NORAD_CAT_ID":49211,"ELEMENT_SET_NO":999,"REV_AT_EPOCH":21437,"BSTAR":0.00019117402,"MEAN_MOTION_DOT":8.3e-7,"MEAN_MOTION_DDOT":0},{"OBJECT_NAME":"ONEWEB-0346","OBJECT_ID":"2021-083AC","EPOCH":"2026-02-10T19:28:16.853952","MEAN_MOTION":13.18686209,"ECCENTRICITY":0.00023526,"INCLINATION":87.9215,"RA_OF_ASC_NODE":0.5555,"ARG_OF_PERICENTER":65.5778,"MEAN_ANOMALY":294.5599,"EPHEMERIS_TYPE":0,"CLASSIFICATION_TYPE":"U","NORAD_CAT_ID":49212,"ELEMENT_SET_NO":999,"REV_AT_EPOCH":21332,"BSTAR":-4.6776898e-5,"MEAN_MOTION_DOT":-6.0e-8,"MEAN_MOTION_DDOT":0},{"OBJECT_NAME":"ONEWEB-0348","OBJECT_ID":"2021-083AD","EPOCH":"2026-02-11T03:08:01.573728","MEAN_MOTION":13.2077301,"ECCENTRICITY":0.00021992,"INCLINATION":87.9214,"RA_OF_ASC_NODE":299.5996,"ARG_OF_PERICENTER":74.8526,"MEAN_ANOMALY":285.285,"EPHEMERIS_TYPE":0,"CLASSIFICATION_TYPE":"U","NORAD_CAT_ID":49213,"ELEMENT_SET_NO":999,"REV_AT_EPOCH":22017,"BSTAR":0.00030054681,"MEAN_MOTION_DOT":1.35e-6,"MEAN_MOTION_DDOT":0},{"OBJECT_NAME":"ONEWEB-0350","OBJECT_ID":"2021-083AE","EPOCH":"2026-02-11T06:36:25.390368","MEAN_MOTION":13.13473889,"ECCENTRICITY":0.00021227,"INCLINATION":87.9033,"RA_OF_ASC_NODE":345.249,"ARG_OF_PERICENTER":84.3454,"MEAN_ANOMALY":275.7917,"EPHEMERIS_TYPE":0,"CLASSIFICATION_TYPE":"U","NORAD_CAT_ID":49214,"ELEMENT_SET_NO":999,"REV_AT_EPOCH":21440,"BSTAR":0.00090354358,"MEAN_MOTION_DOT":3.43e-6,"MEAN_MOTION_DDOT":0},{"OBJECT_NAME":"ONEWEB-0351","OBJECT_ID":"2021-083AF","EPOCH":"2026-02-10T16:04:13.137600","MEAN_MOTION":13.20772819,"ECCENTRICITY":0.00014273,"INCLINATION":87.9212,"RA_OF_ASC_NODE":299.6895,"ARG_OF_PERICENTER":110.3771,"MEAN_ANOMALY":249.7516,"EPHEMERIS_TYPE":0,"CLASSIFICATION_TYPE":"U","NORAD_CAT_ID":49215,"ELEMENT_SET_NO":999,"REV_AT_EPOCH":22007,"BSTAR":6.4898426e-5,"MEAN_MOTION_DOT":3.9e-7,"MEAN_MOTION_DDOT":0},{"OBJECT_NAME":"ONEWEB-0352","OBJECT_ID":"2021-083AG","EPOCH":"2026-02-11T06:08:24.838656","MEAN_MOTION":13.13470842,"ECCENTRICITY":0.000164,"INCLINATION":87.9027,"RA_OF_ASC_NODE":345.2705,"ARG_OF_PERICENTER":90.7999,"MEAN_ANOMALY":269.3318,"EPHEMERIS_TYPE":0,"CLASSIFICATION_TYPE":"U","NORAD_CAT_ID":49216,"ELEMENT_SET_NO":999,"REV_AT_EPOCH":21449,"BSTAR":-0.00056800116,"MEAN_MOTION_DOT":-1.95e-6,"MEAN_MOTION_DDOT":0},{"OBJECT_NAME":"ONEWEB-0354","OBJECT_ID":"2021-083AH","EPOCH":"2026-02-11T03:35:17.918880","MEAN_MOTION":13.20769653,"ECCENTRICITY":0.00019374,"INCLINATION":87.921,"RA_OF_ASC_NODE":299.5935,"ARG_OF_PERICENTER":79.0674,"MEAN_ANOMALY":281.0677,"EPHEMERIS_TYPE":0,"CLASSIFICATION_TYPE":"U","NORAD_CAT_ID":49217,"ELEMENT_SET_NO":999,"REV_AT_EPOCH":22017,"BSTAR":0.00015892802,"MEAN_MOTION_DOT":7.8e-7,"MEAN_MOTION_DDOT":0},{"OBJECT_NAME":"ONEWEB-0355","OBJECT_ID":"2021-083AJ","EPOCH":"2026-02-11T06:50:03.313248","MEAN_MOTION":13.13472161,"ECCENTRICITY":0.00018808,"INCLINATION":87.9019,"RA_OF_ASC_NODE":345.277,"ARG_OF_PERICENTER":88.4669,"MEAN_ANOMALY":271.6676,"EPHEMERIS_TYPE":0,"CLASSIFICATION_TYPE":"U","NORAD_CAT_ID":49218,"ELEMENT_SET_NO":999,"REV_AT_EPOCH":21437,"BSTAR":0.0011872821,"MEAN_MOTION_DOT":4.46e-6,"MEAN_MOTION_DDOT":0}]
